{"type": "FeatureCollection", "features": [ {"type": "Feature", "properties": {"norad_id": 41785, "name": "ALSAT 1B", "group": "resource", "lat": -16.3729096696005, "lon": 15.330170973148643, "alt_km": 657.594267969569, "timestamp": "2025-12-27T21:25:02.157875+00:00", "meta": {"OBJECT_NAME": "ALSAT 1B", "OBJECT_ID": "2016-059C", "EPOCH": "2025-12-27T13:20:07.866240", "MEAN_MOTION": 14.72092707, "ECCENTRICITY": 0.0010698, "INCLINATION": 97.7812, "RA_OF_ASC_NODE": 12.7055, "ARG_OF_PERICENTER": 61.8792, "MEAN_ANOMALY": 298.3496, "EPHEMERIS_TYPE": 0, "CLASSIFICATION_TYPE": "U", "NORAD_CAT_ID": 41785, "ELEMENT_SET_NO": 999, "REV_AT_EPOCH": 49532, "BSTAR": 0.00016775, "MEAN_MOTION_DOT": 1.009e-05, "MEAN_MOTION_DDOT": 0}, "tle": {"line1": "1 41785U 16059C   25361.55564660  .00001009  00000+0  16775-3 0  9998", "line2": "2 41785  97.7812  12.7055 0010698  61.8792 298.3496 14.72092707495321"}}, "geometry": {"type": "Point", "coordinates": [15.330170973148643, -16.3729096696005]}}, {"type": "Feature", "properties": {"norad_id": 41787, "name": "PATHFINDER 1", "group": "resource", "lat": 15.829726938351481, "lon": -173.80571975491767, "alt_km": 683.3440188349214, "timestamp": "2025-12-27T21:25:02.157885+00:00", "meta": {"OBJECT_NAME": "PATHFINDER 1", "OBJECT_ID": "2016-059E", "EPOCH": "2025-12-27T10:51:18.853920", "MEAN_MOTION": 14.6734795, "ECCENTRICITY": 0.002947, "INCLINATION": 97.8139, "RA_OF_ASC_NODE": 3.5432, "ARG_OF_PERICENTER": 36.203, "MEAN_ANOMALY": 324.1162, "EPHEMERIS_TYPE": 0, "CLASSIFICATION_TYPE": "U", "NORAD_CAT_ID": 41787, "ELEMENT_SET_NO": 999, "REV_AT_EPOCH": 49452, "BSTAR": 0.00019025, "MEAN_MOTION_DOT": 1.035e-05, "MEAN_MOTION_DDOT": 0}, "tle": {"line1": "1 41787U 16059E   25361.45230155  .00001035  00000+0  19025-3 0  9998", "line2": "2 41787  97.8139   3.5432 0029470  36.2030 324.1162 14.67347950494528"}}, "geometry": {"type": "Point", "coordinates": [-173.80571975491767, 15.829726938351481]}}, {"type": "Feature", "properties": {"norad_id": 41790, "name": "SCATSAT 1", "group": "resource", "lat": 68.32081843932323, "lon": 37.63512756610379, "alt_km": 586.9463804818688, "timestamp": "2025-12-27T21:25:02.157896+00:00", "meta": {"OBJECT_NAME": "SCATSAT 1", "OBJECT_ID": "2016-059H", "EPOCH": "2025-12-27T11:21:45.697248", "MEAN_MOTION": 14.7898416, "ECCENTRICITY": 0.0056435, "INCLINATION": 98.1444, "RA_OF_ASC_NODE": 58.3264, "ARG_OF_PERICENTER": 81.5943, "MEAN_ANOMALY": 279.1659, "EPHEMERIS_TYPE": 0, "CLASSIFICATION_TYPE": "U", "NORAD_CAT_ID": 41790, "ELEMENT_SET_NO": 999, "REV_AT_EPOCH": 7620, "BSTAR": 0.00022658, "MEAN_MOTION_DOT": 1.662e-05, "MEAN_MOTION_DDOT": 0}, "tle": {"line1": "1 41790U 16059H   25361.47344557  .00001662  00000+0  22658-3 0  9998", "line2": "2 41790  98.1444  58.3264 0056435  81.5943 279.1659 14.78984160 76206"}}, "geometry": {"type": "Point", "coordinates": [37.63512756610379, 68.32081843932323]}}, {"type": "Feature", "properties": {"norad_id": 41875, "name": "GOKTURK 1A", "group": "resource", "lat": -6.46725872132629, "lon": -105.01442879800514, "alt_km": 687.9146947504723, "timestamp": "2025-12-27T21:25:02.157906+00:00", "meta": {"OBJECT_NAME": "GOKTURK 1A", "OBJECT_ID": "2016-073A", "EPOCH": "2025-12-27T11:35:49.316352", "MEAN_MOTION": 14.62796477, "ECCENTRICITY": 0.0001288, "INCLINATION": 98.1422, "RA_OF_ASC_NODE": 253.6521, "ARG_OF_PERICENTER": 82.5721, "MEAN_ANOMALY": 277.5627, "EPHEMERIS_TYPE": 0, "CLASSIFICATION_TYPE": "U", "NORAD_CAT_ID": 41875, "ELEMENT_SET_NO": 999, "REV_AT_EPOCH": 48372, "BSTAR": 0.00010881, "MEAN_MOTION_DOT": 5.08e-06, "MEAN_MOTION_DDOT": 0}, "tle": {"line1": "1 41875U 16073A   25361.48320968  .00000508  00000+0  10881-3 0  9992", "line2": "2 41875  98.1422 253.6521 0001288  82.5721 277.5627 14.62796477483724"}}, "geometry": {"type": "Point", "coordinates": [-105.01442879800514, -6.46725872132629]}}, {"type": "Feature", "properties": {"norad_id": 41877, "name": "RESOURCESAT-2A", "group": "resource", "lat": -39.81090635357499, "lon": 79.05390519925973, "alt_km": 827.1271253336154, "timestamp": "2025-12-27T21:25:02.157916+00:00", "meta": {"OBJECT_NAME": "RESOURCESAT-2A", "OBJECT_ID": "2016-074A", "EPOCH": "2025-12-27T11:28:18.475104", "MEAN_MOTION": 14.21606843, "ECCENTRICITY": 0.0001722, "INCLINATION": 98.7732, "RA_OF_ASC_NODE": 71.2468, "ARG_OF_PERICENTER": 193.6301, "MEAN_ANOMALY": 166.483, "EPHEMERIS_TYPE": 0, "CLASSIFICATION_TYPE": "U", "NORAD_CAT_ID": 41877, "ELEMENT_SET_NO": 999, "REV_AT_EPOCH": 46990, "BSTAR": 0.00022429, "MEAN_MOTION_DOT": 4.47e-06, "MEAN_MOTION_DDOT": 0}, "tle": {"line1": "1 41877U 16074A   25361.47799161  .00000447  00000+0  22429-3 0  9992", "line2": "2 41877  98.7732  71.2468 0001722 193.6301 166.4830 14.21606843469909"}}, "geometry": {"type": "Point", "coordinates": [79.05390519925973, -39.81090635357499]}}, {"type": "Feature", "properties": {"norad_id": 41948, "name": "CARTOSAT-2D", "group": "resource", "lat": -63.28628408305849, "lon": -135.8858083660635, "alt_km": 517.9617041044366, "timestamp": "2025-12-27T21:25:02.157926+00:00", "meta": {"OBJECT_NAME": "CARTOSAT-2D", "OBJECT_ID": "2017-008A", "EPOCH": "2025-12-27T12:26:31.539840", "MEAN_MOTION": 15.19217958, "ECCENTRICITY": 0.0005392, "INCLINATION": 97.4366, "RA_OF_ASC_NODE": 58.7894, "ARG_OF_PERICENTER": 112.0811, "MEAN_ANOMALY": 248.0996, "EPHEMERIS_TYPE": 0, "CLASSIFICATION_TYPE": "U", "NORAD_CAT_ID": 41948, "ELEMENT_SET_NO": 999, "REV_AT_EPOCH": 49151, "BSTAR": 0.00042242, "MEAN_MOTION_DOT": 8.834e-05, "MEAN_MOTION_DDOT": 0}, "tle": {"line1": "1 41948U 17008A   25361.51842060  .00008834  00000+0  42242-3 0  9994", "line2": "2 41948  97.4366  58.7894 0005392 112.0811 248.0996 15.19217958491513"}}, "geometry": {"type": "Point", "coordinates": [-135.8858083660635, -63.28628408305849]}}, {"type": "Feature", "properties": {"norad_id": 42063, "name": "SENTINEL-2B", "group": "resource", "lat": 68.19096436458695, "lon": 51.98739511821847, "alt_km": 781.5378495105333, "timestamp": "2025-12-27T21:25:02.157937+00:00", "meta": {"OBJECT_NAME": "SENTINEL-2B", "OBJECT_ID": "2017-013A", "EPOCH": "2025-12-27T11:01:19.276896", "MEAN_MOTION": 14.30817952, "ECCENTRICITY": 0.000118, "INCLINATION": 98.5694, "RA_OF_ASC_NODE": 73.6974, "ARG_OF_PERICENTER": 89.6737, "MEAN_ANOMALY": 270.4581, "EPHEMERIS_TYPE": 0, "CLASSIFICATION_TYPE": "U", "NORAD_CAT_ID": 42063, "ELEMENT_SET_NO": 999, "REV_AT_EPOCH": 46008, "BSTAR": 0.00021271, "MEAN_MOTION_DOT": 5.14e-06, "MEAN_MOTION_DDOT": 0}, "tle": {"line1": "1 42063U 17013A   25361.45925089  .00000514  00000+0  21271-3 0  9991", "line2": "2 42063  98.5694  73.6974 0001180  89.6737 270.4581 14.30817952460089"}}, "geometry": {"type": "Point", "coordinates": [51.98739511821847, 68.19096436458695]}}, {"type": "Feature", "properties": {"norad_id": 42767, "name": "CARTOSAT-2E", "group": "resource", "lat": 26.165278534941944, "lon": -117.03235794528429, "alt_km": 505.4837434631163, "timestamp": "2025-12-27T21:25:02.157947+00:00", "meta": {"OBJECT_NAME": "CARTOSAT-2E", "OBJECT_ID": "2017-036C", "EPOCH": "2025-12-27T11:15:33.430752", "MEAN_MOTION": 15.19222422, "ECCENTRICITY": 0.0002737, "INCLINATION": 97.4534, "RA_OF_ASC_NODE": 58.8622, "ARG_OF_PERICENTER": 165.2597, "MEAN_ANOMALY": 194.8718, "EPHEMERIS_TYPE": 0, "CLASSIFICATION_TYPE": "U", "NORAD_CAT_ID": 42767, "ELEMENT_SET_NO": 999, "REV_AT_EPOCH": 47207, "BSTAR": 0.00034713, "MEAN_MOTION_DOT": 7.245e-05, "MEAN_MOTION_DDOT": 0}, "tle": {"line1": "1 42767U 17036C   25361.46913693  .00007245  00000+0  34713-3 0  9999", "line2": "2 42767  97.4534  58.8622 0002737 165.2597 194.8718 15.19222422472073"}}, "geometry": {"type": "Point", "coordinates": [-117.03235794528429, 26.165278534941944]}}, {"type": "Feature", "properties": {"norad_id": 42920, "name": "FORMOSAT-5", "group": "resource", "lat": 78.16519972218217, "lon": 32.128431854891055, "alt_km": 722.6846887010715, "timestamp": "2025-12-27T21:25:02.157958+00:00", "meta": {"OBJECT_NAME": "FORMOSAT-5", "OBJECT_ID": "2017-049A", "EPOCH": "2025-12-27T11:06:39.168576", "MEAN_MOTION": 14.50769171, "ECCENTRICITY": 0.0009872, "INCLINATION": 98.2436, "RA_OF_ASC_NODE": 75.4847, "ARG_OF_PERICENTER": 251.0983, "MEAN_ANOMALY": 108.9142, "EPHEMERIS_TYPE": 0, "CLASSIFICATION_TYPE": "U", "NORAD_CAT_ID": 42920, "ELEMENT_SET_NO": 999, "REV_AT_EPOCH": 44177, "BSTAR": 7.9568e-05, "MEAN_MOTION_DOT": 2.69e-06, "MEAN_MOTION_DDOT": 0}, "tle": {"line1": "1 42920U 17049A   25361.46295334  .00000269  00000+0  79568-4 0  9996", "line2": "2 42920  98.2436  75.4847 0009872 251.0983 108.9142 14.50769171441779"}}, "geometry": {"type": "Point", "coordinates": [32.128431854891055, 78.16519972218217]}}, {"type": "Feature", "properties": {"norad_id": 42969, "name": "SENTINEL-5P", "group": "resource", "lat": -32.05177778518136, "lon": 114.79019087853709, "alt_km": 833.4107235233814, "timestamp": "2025-12-27T21:25:02.157969+00:00", "meta": {"OBJECT_NAME": "SENTINEL-5P", "OBJECT_ID": "2017-064A", "EPOCH": "2025-12-27T08:34:42.004704", "MEAN_MOTION": 14.19521219, "ECCENTRICITY": 0.0001066, "INCLINATION": 98.7803, "RA_OF_ASC_NODE": 299.8132, "ARG_OF_PERICENTER": 91.175, "MEAN_ANOMALY": 268.9548, "EPHEMERIS_TYPE": 0, "CLASSIFICATION_TYPE": "U", "NORAD_CAT_ID": 42969, "ELEMENT_SET_NO": 999, "REV_AT_EPOCH": 42518, "BSTAR": 7.2357e-05, "MEAN_MOTION_DOT": 1.08e-06, "MEAN_MOTION_DDOT": 0}, "tle": {"line1": "1 42969U 17064A   25361.35743061  .00000108  00000+0  72357-4 0  9990", "line2": "2 42969  98.7803 299.8132 0001066  91.1750 268.9548 14.19521219425184"}}, "geometry": {"type": "Point", "coordinates": [114.79019087853709, -32.05177778518136]}}]}